OBJECT_NAME,OBJECT_ID,EPOCH,MEAN_MOTION,ECCENTRICITY,INCLINATION,RA_OF_ASC_NODE,ARG_OF_PERICENTER,MEAN_ANOMALY,EPHEMERIS_TYPE,CLASSIFICATION_TYPE,NORAD_CAT_ID,ELEMENT_SET_NO,REV_AT_EPOCH,BSTAR,MEAN_MOTION_DOT,MEAN_MOTION_DDOT
STARLINK-38073,2026-159M,2026-07-21T06:00:02.999808,15.80860773,.00013808,97.2849,41.2898,81.0197,178.2839,0,U,69986,999,282,-.5294272E-3,-.1006E-2,0
STARLINK-38099,2026-159N,2026-07-21T06:00:02.999808,15.80864456,.00016322,97.2850,41.2913,93.8892,169.6872,0,U,69987,999,282,-.6102082E-3,-.115752E-2,0
STARLINK-38064,2026-159P,2026-07-21T06:00:02.999808,15.80889481,.00016989,97.2851,41.2950,94.4252,177.6777,0,U,69988,999,282,-.66137669E-3,-.125453E-2,0
STARLINK-38080,2026-159Q,2026-07-21T06:00:02.999808,15.80853262,.00014729,97.2849,41.2931,91.4592,176.3968,0,U,69989,999,282,-.53231041E-3,-.101108E-2,0
STARLINK-38070,2026-159R,2026-07-21T06:00:02.999808,15.80873661,.00009906,97.2850,41.2971,104.4719,171.9215,0,U,69990,999,282,-.61331894E-3,-.116372E-2,0
STARLINK-38042,2026-159S,2026-07-21T06:00:02.999808,15.80853487,.00014948,97.2849,41.2988,89.5531,191.1184,0,U,69991,999,282,-.44022783E-3,-.83808E-3,0
STARLINK-38071,2026-159T,2026-07-21T06:00:02.999808,15.80865092,.00014812,97.2850,41.3007,70.4847,214.4549,0,U,69992,999,282,-.53314543E-3,-.101318E-2,0
STARLINK-38082,2026-159U,2026-07-21T06:00:02.999808,15.80777324,.00009595,97.2850,41.3020,60.2564,228.9560,0,U,69993,999,282,.15432727E-3,.29466E-3,0
STARLINK-38090,2026-159V,2026-07-21T06:00:02.999808,15.80857765,.00013989,97.2851,41.3042,92.8445,200.6594,0,U,69994,999,282,-.58468867E-3,-.11094E-2,0
STARLINK-38084,2026-159W,2026-07-21T06:00:02.999808,15.80881373,.00017834,97.2853,41.3064,84.9350,212.8262,0,U,69995,999,282,-.71935718E-3,-.136224E-2,0
STARLINK-38085,2026-159X,2026-07-21T06:00:02.999808,15.81027103,.00015852,97.2852,41.3085,93.8588,208.1034,0,U,69996,999,282,-.18679215E-2,-.347454E-2,0
STARLINK-38091,2026-159Y,2026-07-21T06:00:02.999808,15.81247968,.00016029,97.2852,41.3098,85.3689,220.7408,0,U,69997,999,282,-.35447957E-2,-.644077E-2,0
STARLINK-38086,2026-159Z,2026-07-21T06:00:02.999808,15.81556575,.0001859,97.2853,41.3114,86.6862,223.4967,0,U,69998,999,282,-.5655207E-2,-.1000365E-1,0
