STARLINK-38073          
1 69986U 26159M   26202.25003472 -.00100600  00000+0 -52943-3 0  9990
2 69986  97.2849  41.2898 0001380  81.0197 178.2839 15.80860773  2824
STARLINK-38099          
1 69987U 26159N   26202.25003472 -.00115752  00000+0 -61021-3 0  9992
2 69987  97.2850  41.2913 0001632  93.8892 169.6872 15.80864456  2821
STARLINK-38064          
1 69988U 26159P   26202.25003472 -.00125453  00000+0 -66138-3 0  9996
2 69988  97.2851  41.2950 0001698  94.4252 177.6777 15.80889481  2821
STARLINK-38080          
1 69989U 26159Q   26202.25003472 -.00101108  00000+0 -53231-3 0  9998
2 69989  97.2849  41.2931 0001472  91.4592 176.3968 15.80853262  2828
STARLINK-38070          
1 69990U 26159R   26202.25003472 -.00116372  00000+0 -61332-3 0  9990
2 69990  97.2850  41.2971 0000990 104.4719 171.9215 15.80873661  2827
STARLINK-38042          
1 69991U 26159S   26202.25003472 -.00083808  00000+0 -44023-3 0  9996
2 69991  97.2849  41.2988 0001494  89.5531 191.1184 15.80853487  2822
STARLINK-38071          
1 69992U 26159T   26202.25003472 -.00101318  00000+0 -53315-3 0  9998
2 69992  97.2850  41.3007 0001481  70.4847 214.4549 15.80865092  2822
STARLINK-38082          
1 69993U 26159U   26202.25003472  .00029466  00000+0  15433-3 0  9999
2 69993  97.2850  41.3020 0000959  60.2564 228.9560 15.80777324  2823
STARLINK-38090          
1 69994U 26159V   26202.25003472 -.00110940  00000+0 -58469-3 0  9996
2 69994  97.2851  41.3042 0001398  92.8445 200.6594 15.80857765  2828
STARLINK-38084          
1 69995U 26159W   26202.25003472 -.00136224  00000+0 -71936-3 0  9994
2 69995  97.2853  41.3064 0001783  84.9350 212.8262 15.80881373  2829
STARLINK-38085          
1 69996U 26159X   26202.25003472 -.00347454  00000+0 -18679-2 0  9998
2 69996  97.2852  41.3085 0001585  93.8588 208.1034 15.81027103  2823
STARLINK-38091          
1 69997U 26159Y   26202.25003472 -.00644077  00000+0 -35448-2 0  9993
2 69997  97.2852  41.3098 0001602  85.3689 220.7408 15.81247968  2824
STARLINK-38086          
1 69998U 26159Z   26202.25003472 -.01000365  00000+0 -56552-2 0  9990
2 69998  97.2853  41.3114 0001859  86.6862 223.4967 15.81556575  2823
